[{"OBJECT_NAME":"HEAD-3A","OBJECT_ID":"2023-121A","EPOCH":"2026-03-09T23:13:19.514208","MEAN_MOTION":14.60504198,"ECCENTRICITY":0.00053162,"INCLINATION":45.0013,"RA_OF_ASC_NODE":79.5453,"ARG_OF_PERICENTER":132.961,"MEAN_ANOMALY":227.1693,"EPHEMERIS_TYPE":0,"CLASSIFICATION_TYPE":"U","NORAD_CAT_ID":57626,"ELEMENT_SET_NO":999,"REV_AT_EPOCH":13707,"BSTAR":0.00022333117,"MEAN_MOTION_DOT":9.35e-6,"MEAN_MOTION_DDOT":0},{"OBJECT_NAME":"FENGYUN 1C DEB","OBJECT_ID":"1999-025BQV","EPOCH":"2026-03-08T02:44:13.724736","MEAN_MOTION":14.54402126,"ECCENTRICITY":0.00536542,"INCLINATION":99.5441,"RA_OF_ASC_NODE":125.2745,"ARG_OF_PERICENTER":94.7143,"MEAN_ANOMALY":295.8318,"EPHEMERIS_TYPE":0,"CLASSIFICATION_TYPE":"U","NORAD_CAT_ID":31341,"ELEMENT_SET_NO":999,"REV_AT_EPOCH":98859,"BSTAR":0.0017784248,"MEAN_MOTION_DOT":7.657e-5,"MEAN_MOTION_DDOT":0}]
